! Propagated orbits
format  = 'OEF2.0'       ! file format
rectype = 'ML'           ! record type (1L/ML)
refsys  = ECLM J2000     ! default reference system
END_OF_HEADER
! Orbital elements of object K19V00D (computed with least squares fit)
K19V00D
! Keplerian elements: a, e, i, long. node, arg. peric., mean anomaly
 KEP   5.2086582985661405E+00 0.041037517072330  20.4845468192319 315.8436056618594 126.7174037870516   7.0363794445434
 MJD     59751.503580741 TDT
 MAG   0.000  0.000
! Non-grav parameters: model used, actual number in use, dimension
 LSP   0  0    6
! RMS    2.35603E-04   3.46490E-05   1.04465E-04   7.88344E-04   6.53409E-02   5.72363E-02
! EIG   2.57927E-07   6.25428E-07   4.34869E-06   1.34429E-05   1.05794E-04   1.53101E-03
! WEA   0.13985  -0.00907   0.00070   0.00348  -0.74474   0.65247
 COV   5.550889260266226E-08  1.298066551831277E-10  9.579213197454184E-09
 COV   3.398834818406765E-08 -1.386451383193374E-05  1.227794793796013E-05
 COV   1.200552438740644E-09 -1.960615043188784E-09 -1.414571983711398E-08
 COV   9.469921237791093E-07 -7.868206910870742E-07  1.091298466443114E-08
 COV   7.434476338649097E-08 -4.049236002056951E-06  3.462751998859764E-06
 COV   6.214862498805945E-07 -2.053788051885902E-05  1.721758414916055E-05
 COV   4.269427002456625E-03 -3.738648476061508E-03  3.275996069638152E-03
 NOR   2.243647329717226E+11 -1.211688247639275E+12 -3.045191878659430E+08
 NOR   1.265960238670402E+10  1.348240503025121E+10  1.418833809383491E+10
 NOR   6.592390137381579E+12  1.046870168019454E+09 -6.941265957481163E+10
 NOR  -7.402147828437871E+10 -7.798688219155554E+10  7.729559526705066E+08
 NOR  -8.182804304746896E+07 -1.385882944925780E+06 -5.758349000878780E+05
 NOR   7.486064488035752E+08  7.877775292112293E+08  8.310657586528956E+08
 NOR   8.410252657938005E+08  8.873518288257015E+08  9.363946652307260E+08
! Orbital elements of object K20X01J (computed with least squares fit)
K20X01J
! Keplerian elements: a, e, i, long. node, arg. peric., mean anomaly
 KEP   5.2122586158728774E+00 0.043339815768804  20.4718394776065 315.8521946724863 124.1615864980219   9.5592054339815
 MJD     59751.503580741 TDT
 MAG   0.000  0.000
! Non-grav parameters: model used, actual number in use, dimension
 LSP   0  0    6
! RMS    5.43003E-04   7.69670E-05   7.18353E-05   7.45307E-04   6.50158E-02   5.84310E-02
! EIG   4.12016E-07   8.16638E-07   1.80084E-06   1.41254E-05   3.34363E-04   1.58638E-03
! WEA   0.27834   0.03341   0.00026   0.00008  -0.71405   0.64152
 COV   2.948526488000916E-07  4.103321140688376E-08  2.199752654906728E-08
 COV  -9.044296987755398E-08 -2.744624800951291E-05  2.455918253485948E-05
 COV   5.923915904247201E-09  3.278651368869324E-09 -1.604414989284414E-08
 COV  -3.225753264782918E-06  2.880625285773529E-06  5.160311733125225E-09
 COV  -3.299468986952502E-08 -1.402289526778828E-06  1.267303580693973E-06
 COV   5.554828077289463E-07 -1.796884791983769E-06  1.311575716237892E-06
 COV   4.227049343160934E-03 -3.798689545854389E-03  3.414178115535876E-03
 NOR   5.860617154857653E+10 -2.909820083536068E+11 -1.312508023343517E+08
 NOR   4.419611311201819E+09  4.722523070092490E+09  5.076671039370955E+09
 NOR   1.454793959834633E+12  5.903867568325064E+08 -2.107522220677400E+10
 NOR  -2.252488665267646E+10 -2.418813287205419E+10  4.554022337801569E+08
 NOR   2.256104512630223E+07  7.605663846815778E+05  1.114517590314195E+06
 NOR   4.142957441375570E+08  4.390037322142249E+08  4.742677852457784E+08
 NOR   4.687762163248956E+08  5.064360895159545E+08  5.471797374267045E+08
! Orbital elements of object K19V00D=K20X01J (computed with least squares fit)
K19V00D=K20X01J
! Keplerian elements: a, e, i, long. node, arg. peric., mean anomaly
 KEP   5.2324744800289800E+00 0.047273267080124  20.4776234947047 315.7811350105440 125.9308606763452   7.9896140760145
 MJD     59751.503580741 TDT
! Non-grav parameters: model used, actual number in use, dimension
 LSP   0  0    6
! RMS    8.45403E-04   7.46487E-05   8.08826E-05   8.42129E-04   1.31115E-01   1.17070E-01
! EIG   5.63651E-07   1.33298E-06   2.44374E-06   1.03237E-05   5.77510E-05   3.18256E-03
! WEA   0.26509   0.02314  -0.00008  -0.00367  -0.71903   0.64201
 COV   7.147064283650062E-07  6.277628583624062E-08 -1.130543995192049E-08
 COV  -5.697117553458682E-07 -1.105751459937023E-04  9.873863518091411E-05
 COV   5.572421824221282E-09 -9.374137341735723E-10 -5.033996829198475E-08
 COV  -9.644844609591821E-06  8.613562284040885E-06  6.542002420581938E-09
 COV   1.956231221506888E-08  1.805468817962573E-06 -1.620287901438153E-06
 COV   7.091808546692601E-07  8.750403386594425E-05 -7.835257010117057E-05
 COV   1.719110834371216E-02 -1.534954613546151E-02  1.370546751046618E-02
 NOR   5.295614265343286E+10 -2.575700755602864E+11 -1.348582167506113E+07
 NOR   2.725281894383862E+09  2.897495717524186E+09  3.041015112375494E+09
 NOR   1.260993158475112E+12 -8.036325749869461E+07 -1.346648823202095E+10
 NOR  -1.435828068304337E+10 -1.509455122002476E+10  1.711453345288469E+08
 NOR  -6.760798460617648E+06  6.269607961893374E+05  8.314147611114753E+05
 NOR   1.811849994105587E+08  1.889577512220062E+08  2.014892884356672E+08
 NOR   2.018192194221065E+08  2.152586864300356E+08  2.298108300254872E+08
